[{"OBJECT_NAME":"SL-8 R/B","OBJECT_ID":"1979-089B","EPOCH":"2026-04-01T15:12:58.266144","MEAN_MOTION":14.42365816,"ECCENTRICITY":0.0016616,"INCLINATION":74.0696,"RA_OF_ASC_NODE":48.5675,"ARG_OF_PERICENTER":218.1606,"MEAN_ANOMALY":141.8375,"EPHEMERIS_TYPE":0,"CLASSIFICATION_TYPE":"U","NORAD_CAT_ID":11574,"ELEMENT_SET_NO":999,"REV_AT_EPOCH":43941,"BSTAR":0.00012662,"MEAN_MOTION_DOT":3.93e-6,"MEAN_MOTION_DDOT":0},{"OBJECT_NAME":"SL-14 R/B","OBJECT_ID":"1980-005B","EPOCH":"2026-04-01T19:33:08.054784","MEAN_MOTION":14.90957277,"ECCENTRICITY":0.0017245,"INCLINATION":82.5109,"RA_OF_ASC_NODE":285.2942,"ARG_OF_PERICENTER":86.7244,"MEAN_ANOMALY":273.5948,"EPHEMERIS_TYPE":0,"CLASSIFICATION_TYPE":"U","NORAD_CAT_ID":11672,"ELEMENT_SET_NO":999,"REV_AT_EPOCH":47993,"BSTAR":6.7159e-5,"MEAN_MOTION_DOT":6.9e-6,"MEAN_MOTION_DDOT":0},{"OBJECT_NAME":"SL-8 R/B","OBJECT_ID":"1981-003B","EPOCH":"2026-04-01T18:36:01.270944","MEAN_MOTION":15.12024332,"ECCENTRICITY":0.0260376,"INCLINATION":82.9326,"RA_OF_ASC_NODE":268.6585,"ARG_OF_PERICENTER":98.4158,"MEAN_ANOMALY":264.6678,"EPHEMERIS_TYPE":0,"CLASSIFICATION_TYPE":"U","NORAD_CAT_ID":12139,"ELEMENT_SET_NO":999,"REV_AT_EPOCH":31816,"BSTAR":0.00061598,"MEAN_MOTION_DOT":0.00024717,"MEAN_MOTION_DDOT":0},{"OBJECT_NAME":"SL-3 R/B","OBJECT_ID":"1981-046B","EPOCH":"2026-04-01T19:36:07.406496","MEAN_MOTION":15.42574715,"ECCENTRICITY":0.0018123,"INCLINATION":81.2281,"RA_OF_ASC_NODE":261.9557,"ARG_OF_PERICENTER":300.087,"MEAN_ANOMALY":59.8575,"EPHEMERIS_TYPE":0,"CLASSIFICATION_TYPE":"U","NORAD_CAT_ID":12465,"ELEMENT_SET_NO":999,"REV_AT_EPOCH":44199,"BSTAR":0.00033292,"MEAN_MOTION_DOT":0.00014586,"MEAN_MOTION_DDOT":0},{"OBJECT_NAME":"SL-3 R/B","OBJECT_ID":"1981-103B","EPOCH":"2026-04-01T18:57:24.727392","MEAN_MOTION":15.21655037,"ECCENTRICITY":0.0013004,"INCLINATION":81.1615,"RA_OF_ASC_NODE":186.3339,"ARG_OF_PERICENTER":204.3639,"MEAN_ANOMALY":155.698,"EPHEMERIS_TYPE":0,"CLASSIFICATION_TYPE":"U","NORAD_CAT_ID":12904,"ELEMENT_SET_NO":999,"REV_AT_EPOCH":97674,"BSTAR":0.00026687,"MEAN_MOTION_DOT":6.069e-5,"MEAN_MOTION_DDOT":0},{"OBJECT_NAME":"SL-3 R/B","OBJECT_ID":"1982-013B","EPOCH":"2026-04-01T20:30:27.833184","MEAN_MOTION":15.22224052,"ECCENTRICITY":0.0023584,"INCLINATION":81.1726,"RA_OF_ASC_NODE":133.6164,"ARG_OF_PERICENTER":101.792,"MEAN_ANOMALY":258.5959,"EPHEMERIS_TYPE":0,"CLASSIFICATION_TYPE":"U","NORAD_CAT_ID":13068,"ELEMENT_SET_NO":999,"REV_AT_EPOCH":40787,"BSTAR":0.00020152,"MEAN_MOTION_DOT":4.692e-5,"MEAN_MOTION_DDOT":0},{"OBJECT_NAME":"SL-3 R/B","OBJECT_ID":"1982-039B","EPOCH":"2026-04-01T18:44:58.694496","MEAN_MOTION":15.10213149,"ECCENTRICITY":0.0028352,"INCLINATION":81.1565,"RA_OF_ASC_NODE":189.3351,"ARG_OF_PERICENTER":247.7056,"MEAN_ANOMALY":112.1163,"EPHEMERIS_TYPE":0,"CLASSIFICATION_TYPE":"U","NORAD_CAT_ID":13154,"ELEMENT_SET_NO":999,"REV_AT_EPOCH":38512,"BSTAR":0.00018226,"MEAN_MOTION_DOT":3.028e-5,"MEAN_MOTION_DDOT":0},{"OBJECT_NAME":"SL-3 R/B","OBJECT_ID":"1982-079B","EPOCH":"2026-04-01T19:54:19.518048","MEAN_MOTION":15.25106671,"ECCENTRICITY":0.0025504,"INCLINATION":81.148,"RA_OF_ASC_NODE":165.754,"ARG_OF_PERICENTER":88.8481,"MEAN_ANOMALY":271.5674,"EPHEMERIS_TYPE":0,"CLASSIFICATION_TYPE":"U","NORAD_CAT_ID":13403,"ELEMENT_SET_NO":999,"REV_AT_EPOCH":38122,"BSTAR":0.00023629,"MEAN_MOTION_DOT":5.995e-5,"MEAN_MOTION_DDOT":0},{"OBJECT_NAME":"SL-14 R/B","OBJECT_ID":"1982-092B","EPOCH":"2026-04-01T19:37:28.097184","MEAN_MOTION":14.86687285,"ECCENTRICITY":0.0019274,"INCLINATION":82.5652,"RA_OF_ASC_NODE":119.7624,"ARG_OF_PERICENTER":221.0558,"MEAN_ANOMALY":312.1011,"EPHEMERIS_TYPE":0,"CLASSIFICATION_TYPE":"U","NORAD_CAT_ID":13553,"ELEMENT_SET_NO":999,"REV_AT_EPOCH":33236,"BSTAR":5.3659e-5,"MEAN_MOTION_DOT":5.03e-6,"MEAN_MOTION_DDOT":0},{"OBJECT_NAME":"SL-3 R/B","OBJECT_ID":"1983-010B","EPOCH":"2026-04-01T09:40:46.759872","MEAN_MOTION":15.47123509,"ECCENTRICITY":0.0015664,"INCLINATION":81.1046,"RA_OF_ASC_NODE":334.3871,"ARG_OF_PERICENTER":332.7155,"MEAN_ANOMALY":27.3265,"EPHEMERIS_TYPE":0,"CLASSIFICATION_TYPE":"U","NORAD_CAT_ID":13819,"ELEMENT_SET_NO":999,"REV_AT_EPOCH":36145,"BSTAR":0.00028683,"MEAN_MOTION_DOT":0.00014646,"MEAN_MOTION_DDOT":0},{"OBJECT_NAME":"SL-3 R/B","OBJECT_ID":"1983-075B","EPOCH":"2026-04-01T20:07:42.716640","MEAN_MOTION":15.38974567,"ECCENTRICITY":0.0022643,"INCLINATION":97.6132,"RA_OF_ASC_NODE":97.3021,"ARG_OF_PERICENTER":142.911,"MEAN_ANOMALY":217.3705,"EPHEMERIS_TYPE":0,"CLASSIFICATION_TYPE":"U","NORAD_CAT_ID":14208,"ELEMENT_SET_NO":999,"REV_AT_EPOCH":33371,"BSTAR":0.00034037,"MEAN_MOTION_DOT":0.00013166,"MEAN_MOTION_DDOT":0},{"OBJECT_NAME":"COSMOS 1536","OBJECT_ID":"1984-013A","EPOCH":"2026-04-01T16:49:13.516032","MEAN_MOTION":15.24147538,"ECCENTRICITY":0.0013804,"INCLINATION":82.5414,"RA_OF_ASC_NODE":84.9639,"ARG_OF_PERICENTER":193.7603,"MEAN_ANOMALY":166.326,"EPHEMERIS_TYPE":0,"CLASSIFICATION_TYPE":"U","NORAD_CAT_ID":14699,"ELEMENT_SET_NO":999,"REV_AT_EPOCH":27612,"BSTAR":0.00030592,"MEAN_MOTION_DOT":7.492e-5,"MEAN_MOTION_DDOT":0},{"OBJECT_NAME":"SL-14 R/B","OBJECT_ID":"1984-027B","EPOCH":"2026-04-01T15:43:14.546208","MEAN_MOTION":14.86001483,"ECCENTRICITY":0.0016525,"INCLINATION":82.5423,"RA_OF_ASC_NODE":223.4729,"ARG_OF_PERICENTER":256.2708,"MEAN_ANOMALY":103.6669,"EPHEMERIS_TYPE":0,"CLASSIFICATION_TYPE":"U","NORAD_CAT_ID":14820,"ELEMENT_SET_NO":999,"REV_AT_EPOCH":25104,"BSTAR":7.3248e-5,"MEAN_MOTION_DOT":6.65e-6,"MEAN_MOTION_DDOT":0},{"OBJECT_NAME":"SL-8 R/B","OBJECT_ID":"1985-006B","EPOCH":"2026-04-01T20:06:54.641088","MEAN_MOTION":14.37799995,"ECCENTRICITY":0.0017532,"INCLINATION":74.0458,"RA_OF_ASC_NODE":218.5511,"ARG_OF_PERICENTER":129.5267,"MEAN_ANOMALY":344.9206,"EPHEMERIS_TYPE":0,"CLASSIFICATION_TYPE":"U","NORAD_CAT_ID":15483,"ELEMENT_SET_NO":999,"REV_AT_EPOCH":15735,"BSTAR":0.00012193,"MEAN_MOTION_DOT":3.42e-6,"MEAN_MOTION_DDOT":0},{"OBJECT_NAME":"SL-12 R/B(2)","OBJECT_ID":"1985-042D","EPOCH":"2026-04-01T13:52:38.957952","MEAN_MOTION":14.21988978,"ECCENTRICITY":0.0032847,"INCLINATION":71.1095,"RA_OF_ASC_NODE":39.3692,"ARG_OF_PERICENTER":90.1454,"MEAN_ANOMALY":82.2174,"EPHEMERIS_TYPE":0,"CLASSIFICATION_TYPE":"U","NORAD_CAT_ID":15772,"ELEMENT_SET_NO":999,"REV_AT_EPOCH":11764,"BSTAR":8.096e-5,"MEAN_MOTION_DOT":1.32e-6,"MEAN_MOTION_DDOT":0},{"OBJECT_NAME":"SL-14 R/B","OBJECT_ID":"1985-069B","EPOCH":"2026-04-01T11:57:23.042304","MEAN_MOTION":14.86457907,"ECCENTRICITY":0.0020202,"INCLINATION":82.5306,"RA_OF_ASC_NODE":3.4919,"ARG_OF_PERICENTER":114.7863,"MEAN_ANOMALY":245.5458,"EPHEMERIS_TYPE":0,"CLASSIFICATION_TYPE":"U","NORAD_CAT_ID":15945,"ELEMENT_SET_NO":999,"REV_AT_EPOCH":17622,"BSTAR":6.3475e-5,"MEAN_MOTION_DOT":5.87e-6,"MEAN_MOTION_DDOT":0},{"OBJECT_NAME":"SL-16 R/B","OBJECT_ID":"1985-097B","EPOCH":"2026-04-01T11:04:07.741344","MEAN_MOTION":14.1660306,"ECCENTRICITY":0.0009347,"INCLINATION":71.0007,"RA_OF_ASC_NODE":92.6109,"ARG_OF_PERICENTER":232.9843,"MEAN_ANOMALY":288.9924,"EPHEMERIS_TYPE":0,"CLASSIFICATION_TYPE":"U","NORAD_CAT_ID":16182,"ELEMENT_SET_NO":999,"REV_AT_EPOCH":9045,"BSTAR":-6.9608e-5,"MEAN_MOTION_DOT":-1.87e-6,"MEAN_MOTION_DDOT":0}]
